{
    "links": {
        "self": "http://www.neowsapp.com/rest/v1/neo/3781728?api_key=iIulBulltgU6a56xZRHN4H3l9WmuAYTsLGpBGhQ2"
    },
    "id": "3781728",
    "neo_reference_id": "3781728",
    "name": "(2017 SF12)",
    "designation": "2017 SF12",
    "nasa_jpl_url": "http://ssd.jpl.nasa.gov/sbdb.cgi?sstr=3781728",
    "absolute_magnitude_h": 24.6,
    "estimated_diameter": {
        "kilometers": {
            "estimated_diameter_min": 0.0319561887,
            "estimated_diameter_max": 0.0714562102
        },
        "meters": {
            "estimated_diameter_min": 31.9561886721,
            "estimated_diameter_max": 71.4562101727
        },
        "miles": {
            "estimated_diameter_min": 0.0198566489,
            "estimated_diameter_max": 0.0444008168
        },
        "feet": {
            "estimated_diameter_min": 104.8431420431,
            "estimated_diameter_max": 234.436392583
        }
    },
    "is_potentially_hazardous_asteroid": false,
    "close_approach_data": [
        {
            "close_approach_date": "2017-09-22",
            "close_approach_date_full": "2017-Sep-22 23:10",
            "epoch_date_close_approach": 1506121800000,
            "relative_velocity": {
                "kilometers_per_second": "8.1588590143",
                "kilometers_per_hour": "29371.8924515654",
                "miles_per_hour": "18250.5517291408"
            },
            "miss_distance": {
                "astronomical": "0.1177430696",
                "lunar": "45.8020540744",
                "kilometers": "17614112.419421752",
                "miles": "10944901.9355820976"
            },
            "orbiting_body": "Earth"
        }
    ],
    "orbital_data": {
        "orbit_id": "3",
        "orbit_determination_date": "2017-10-01 06:50:18",
        "first_observation_date": "2017-09-22",
        "last_observation_date": "2017-09-30",
        "data_arc_in_days": 8,
        "observations_used": 28,
        "orbit_uncertainty": "8",
        "minimum_orbit_intersection": ".11701",
        "jupiter_tisserand_invariant": "4.393",
        "epoch_osculation": "2458020.5",
        "eccentricity": ".2720645505879329",
        "semi_major_axis": "1.5388246152394",
        "inclination": "14.78398725593975",
        "ascending_node_longitude": "180.4453400150979",
        "orbital_period": "697.2397105936294",
        "perihelion_distance": "1.120164987860644",
        "perihelion_argument": "182.537596258848",
        "aphelion_distance": "1.957484242618156",
        "perihelion_time": "2458021.920959114388",
        "mean_anomaly": "359.2663279595131",
        "mean_motion": ".516321710496805",
        "equinox": "J2000",
        "orbit_class": {
            "orbit_class_type": "AMO",
            "orbit_class_description": "Near-Earth asteroid orbits similar to that of 1221 Amor",
            "orbit_class_range": "1.017 AU < q (perihelion) < 1.3 AU"
        }
    },
    "is_sentry_object": false
}